HAWK-A                  
1 43765U 18099H   26068.67628545  .00008617  00000+0  36104-3 0  9995
2 43765  97.4051 122.2425 0034260 275.5523  84.1807 15.23231043397949
STARLINK-30360          
1 57776U 23134F   26068.42736046 -.00000007  00000+0  94085-5 0  9997
2 57776  42.9980 196.2238 0001188 219.3661 140.7104 15.26742217139460
